STARLINK-33701          
1 63464U 25070E   26177.89571284  .00021583  00000+0  79173-3 0  9992
2 63464  43.0025   3.4477 0001532 267.4258  92.6418 15.27572029 69677
STARLINK-33685          
1 63465U 25070F   26178.20465963  .00018966  00000+0  69712-3 0  9994
2 63465  43.0005   1.4676 0001348 278.7980  81.2719 15.27571267 69724
STARLINK-33654          
1 63466U 25070G   26178.19437733  .00024894  00000+0  91092-3 0  9990
2 63466  42.9989   1.3884 0001114 270.0677  90.0047 15.27586125 69724
STARLINK-33697          
1 63467U 25070H   26178.19694822  .00016518  00000+0  60841-3 0  9997
2 63467  42.9992   1.4211 0001385 266.8867  93.1826 15.27581544 69727
STARLINK-33720          
1 63468U 25070J   26178.19823321  .00024889  00000+0  91118-3 0  9997
2 63468  42.9998   1.4166 0001454 258.7404 101.3284 15.27570045 69721
STARLINK-33587          
1 63469U 25070K   26177.92126410  .00022629  00000+0  82922-3 0  9996
2 63469  43.0023   2.7745 0002030 281.6989  78.3635 15.27583238 69680
STARLINK-33637          
1 63470U 25070L   26178.22650480  .00020231  00000+0  74265-3 0  9999
2 63470  43.0033   1.6289 0001298 273.7164  86.3539 15.27581659 69728
STARLINK-33744          
1 63471U 25070M   26178.21108039  .00016526  00000+0  60871-3 0  9997
2 63471  43.0001   1.5095 0001474 269.0020  91.0662 15.27579823 69723
STARLINK-33766          
1 63472U 25070N   26178.22006259  .00025878  00000+0  94519-3 0  9996
2 63472  43.0030   1.5805 0001258 282.2559  77.8152 15.27629882 69726
STARLINK-33765          
1 63473U 25070P   26178.20208612  .00016599  00000+0  61134-3 0  9999
2 63473  42.9996   1.4440 0001169 272.2048  87.8669 15.27581271 69726
STARLINK-33735          
1 63474U 25070Q   26177.92253228  .00030353  00000+0  11059-2 0  9995
2 63474  43.0001   2.7784 0001510 280.8545  79.2136 15.27642325 69685
STARLINK-33731          
1 63475U 25070R   26178.22393134  .00020751  00000+0  76151-3 0  9997
2 63475  43.0033   1.6080 0001886 270.6706  89.3929 15.27579006 69722
STARLINK-33718          
1 63476U 25070S   26178.23663646  .00020734  00000+0  76096-3 0  9996
2 63476  43.0017   0.8385 0001818 281.5476  78.5171 15.27575055 69734
STARLINK-33630          
1 63477U 25070T   26178.18586339  .00017877  00000+0  65768-3 0  9992
2 63477  42.9990 357.8414 0000634 206.2671 153.8149 15.27574433 69761
STARLINK-33695          
1 63478U 25070U   26177.91147394  .00020261  00000+0  74318-3 0  9999
2 63478  43.0008 359.2155 0001808 272.3581  87.7064 15.27606123 69729
STARLINK-33713          
1 63479U 25070V   26177.91531521  .00010867  00000+0  40423-3 0  9990
2 63479  43.0017 359.2421 0002268 245.3081 114.7535 15.27548504 69724
STARLINK-33721          
1 63480U 25070W   26177.85250149  .00007841  00000+0  29419-3 0  9999
2 63480  43.0002 359.6347 0001586 268.3342  91.7328 15.27575967 69714
STARLINK-33639          
1 63481U 25070X   26178.19871267  .00025840  00000+0  94529-3 0  9991
2 63481  43.0011 357.9293 0001553 282.9141  77.1537 15.27578413 69763
STARLINK-33688          
1 63483U 25070Z   26178.20594097  .00019174  00000+0  70458-3 0  9996
2 63483  43.0000   1.4541 0001514 277.2585  82.8094 15.27574528 69726
STARLINK-33700          
1 63484U 25070AA  26177.79434529  .00023008  00000+0  84357-3 0  9997
2 63484  42.9939   3.5196 0000609 254.9792 105.0992 15.27558308 69667
STARLINK-33687          
1 63485U 25070AB  26177.91354866  .00025443  00000+0  93139-3 0  9990
2 63485  43.0022   2.6544 0001606 268.9303  91.1365 15.27562286 69682
STARLINK-33716          
1 63486U 25070AC  26177.91869762  .00014047  00000+0  51926-3 0  9993
2 63486  43.0019   2.7476 0001789 277.1035  82.9613 15.27562675 69686
STARLINK-33754          
1 63487U 25070AD  26178.20079755  .00015883  00000+0  58543-3 0  9993
2 63487  43.0002   1.4166 0001529 270.5152  89.5524 15.27581610 69729
STARLINK-33828          
1 63493U 25071A   26177.90598102  .00035990  00000+0  10381-2 0  9997
2 63493  53.1588 350.3489 0000856  88.2698 271.8403 15.35390195 69505
STARLINK-33819          
1 63494U 25071B   26177.91668980  .00072585  00000+0  21441-2 0  9991
2 63494  53.1597 350.0952 0001122  94.0263  63.6412 15.34321336  5909
STARLINK-33845          
1 63495U 25071C   26177.90614297  .00030557  00000+0  10396-2 0  9993
2 63495  53.1600 352.4695 0000873  92.9027 267.2073 15.30201321 69476
STARLINK-33829          
1 63496U 25071D   26177.90587756  .00031068  00000+0  10084-2 0  9995
2 63496  53.1604 352.4684 0001025  94.0661 266.0457 15.31710180 69434
STARLINK-33815          
1 63497U 25071E   26177.90121225  .00023065  00000+0  75282-3 0  9991
2 63497  53.1596 352.4437 0001083  66.8615 293.2500 15.31696461 69493
STARLINK-33833          
1 63498U 25071F   26177.91054747  .00023001  00000+0  75089-3 0  9992
2 63498  53.1600 352.4966 0000671  68.6357 291.4716 15.31690413 69492
STARLINK-33534          
1 63499U 25071G   26178.19479588  .00020246  00000+0  66241-3 0  9996
2 63499  53.1599 350.7178 0001105  76.4265 283.6860 15.31699415 69522
