OBJECT_NAME,OBJECT_ID,EPOCH,MEAN_MOTION,ECCENTRICITY,INCLINATION,RA_OF_ASC_NODE,ARG_OF_PERICENTER,MEAN_ANOMALY,EPHEMERIS_TYPE,CLASSIFICATION_TYPE,NORAD_CAT_ID,ELEMENT_SET_NO,REV_AT_EPOCH,BSTAR,MEAN_MOTION_DOT,MEAN_MOTION_DDOT
STARLINK-33701,2025-070E,2026-06-26T21:29:49.589376,15.27572029,.0001532,43.0025,3.4477,267.4258,92.6418,0,U,63464,999,6967,.79173E-3,.21583E-3,0
STARLINK-33685,2025-070F,2026-06-27T04:54:42.592032,15.27571267,.00013488,43.0005,1.4676,278.7980,81.2719,0,U,63465,999,6972,.69712436E-3,.18966E-3,0
STARLINK-33654,2025-070G,2026-06-27T04:39:54.201312,15.27586125,.00011146,42.9989,1.3884,270.0677,90.0047,0,U,63466,999,6972,.91091944E-3,.24894E-3,0
STARLINK-33697,2025-070H,2026-06-27T04:43:36.326208,15.27581544,.00013859,42.9992,1.4211,266.8867,93.1826,0,U,63467,999,6972,.60840648E-3,.16518E-3,0
STARLINK-33720,2025-070J,2026-06-27T04:45:27.349344,15.27570045,.00014544,42.9998,1.4166,258.7404,101.3284,0,U,63468,999,6972,.9111767E-3,.24889E-3,0
STARLINK-33587,2025-070K,2026-06-26T22:06:37.218240,15.27583238,.000203,43.0023,2.7745,281.6989,78.3635,0,U,63469,999,6968,.82922E-3,.22629E-3,0
STARLINK-33637,2025-070L,2026-06-27T05:26:10.014720,15.27581659,.00012984,43.0033,1.6289,273.7164,86.3539,0,U,63470,999,6972,.74264904E-3,.20231E-3,0
STARLINK-33744,2025-070M,2026-06-27T05:03:57.345696,15.27579823,.00014747,43.0001,1.5095,269.0020,91.0662,0,U,63471,999,6972,.6087122E-3,.16526E-3,0
STARLINK-33766,2025-070N,2026-06-27T05:16:53.407776,15.27629882,.00012582,43.0030,1.5805,282.2559,77.8152,0,U,63472,999,6972,.94519066E-3,.25878E-3,0
STARLINK-33765,2025-070P,2026-06-27T04:51:00.240768,15.27581271,.0001169,42.9996,1.4440,272.2048,87.8669,0,U,63473,999,6972,.61133903E-3,.16599E-3,0
STARLINK-33735,2025-070Q,2026-06-26T22:08:26.788992,15.27642325,.000151,43.0001,2.7784,280.8545,79.2136,0,U,63474,999,6968,.11059E-2,.30353E-3,0
STARLINK-33731,2025-070R,2026-06-27T05:22:27.667776,15.27579006,.00018869,43.0033,1.6080,270.6706,89.3929,0,U,63475,999,6972,.76150818E-3,.20751E-3,0
STARLINK-33718,2025-070S,2026-06-27T05:40:45.390144,15.27575055,.00018183,43.0017,0.8385,281.5476,78.5171,0,U,63476,999,6973,.76095909E-3,.20734E-3,0
STARLINK-33630,2025-070T,2026-06-27T04:27:38.596896,15.27574433,.00006348,42.9990,357.8414,206.2671,153.8149,0,U,63477,999,6976,.65767671E-3,.17877E-3,0
STARLINK-33695,2025-070U,2026-06-26T21:52:31.348416,15.27606123,.0001808,43.0008,359.2155,272.3581,87.7064,0,U,63478,999,6972,.74318E-3,.20261E-3,0
STARLINK-33713,2025-070V,2026-06-26T21:58:03.234144,15.27548504,.0002268,43.0017,359.2421,245.3081,114.7535,0,U,63479,999,6972,.40423E-3,.10867E-3,0
STARLINK-33721,2025-070W,2026-06-26T20:27:36.128736,15.27575967,.0001586,43.0002,359.6347,268.3342,91.7328,0,U,63480,999,6971,.29418622E-3,.7841E-4,0
STARLINK-33639,2025-070X,2026-06-27T04:46:08.774688,15.27578413,.00015531,43.0011,357.9293,282.9141,77.1537,0,U,63481,999,6976,.94529151E-3,.2584E-3,0
STARLINK-33688,2025-070Z,2026-06-27T04:56:33.299808,15.27574528,.00015144,43.0000,1.4541,277.2585,82.8094,0,U,63483,999,6972,.70458252E-3,.19174E-3,0
STARLINK-33700,2025-070AA,2026-06-26T19:03:51.433056,15.27558308,.00006097,42.9939,3.5196,254.9792,105.0992,0,U,63484,999,6966,.84357421E-3,.23008E-3,0
STARLINK-33687,2025-070AB,2026-06-26T21:55:30.604224,15.27562286,.0001606,43.0022,2.6544,268.9303,91.1365,0,U,63485,999,6968,.93139E-3,.25443E-3,0
STARLINK-33716,2025-070AC,2026-06-26T22:02:55.474368,15.27562675,.0001789,43.0019,2.7476,277.1035,82.9613,0,U,63486,999,6968,.51926E-3,.14047E-3,0
STARLINK-33754,2025-070AD,2026-06-27T04:49:08.908320,15.27581610,.00015299,43.0002,1.4166,270.5152,89.5524,0,U,63487,999,6972,.5854347E-3,.15883E-3,0
STARLINK-33828,2025-071A,2026-06-26T21:44:36.760128,15.35390195,.0000856,53.1588,350.3489,88.2698,271.8403,0,U,63493,999,6950,.10381E-2,.3599E-3,0
STARLINK-33819,2025-071B,2026-06-26T22:00:01.998720,15.34321336,.0001122,53.1597,350.0952,94.0263,63.6412,0,U,63494,999,590,.21441E-2,.72585E-3,0
STARLINK-33845,2025-071C,2026-06-26T21:44:50.752608,15.30201321,.0000873,53.1600,352.4695,92.9027,267.2073,0,U,63495,999,6947,.10396E-2,.30557E-3,0
STARLINK-33829,2025-071D,2026-06-26T21:44:27.821184,15.31710180,.0001025,53.1604,352.4684,94.0661,266.0457,0,U,63496,999,6943,.10084E-2,.31068E-3,0
STARLINK-33815,2025-071E,2026-06-26T21:37:44.738400,15.31696461,.0001083,53.1596,352.4437,66.8615,293.2500,0,U,63497,999,6949,.75282E-3,.23065E-3,0
STARLINK-33833,2025-071F,2026-06-26T21:51:11.301408,15.31690413,.0000671,53.1600,352.4966,68.6357,291.4716,0,U,63498,999,6949,.75089E-3,.23001E-3,0
STARLINK-33534,2025-071G,2026-06-27T04:40:30.364032,15.31699415,.00011059,53.1599,350.7178,76.4265,283.6860,0,U,63499,999,6952,.66240894E-3,.20246E-3,0
